{
    "links": {
        "self": "http://www.neowsapp.com/rest/v1/neo/3644045?api_key=iIulBulltgU6a56xZRHN4H3l9WmuAYTsLGpBGhQ2"
    },
    "id": "3644045",
    "neo_reference_id": "3644045",
    "name": "(2013 LK31)",
    "designation": "2013 LK31",
    "nasa_jpl_url": "http://ssd.jpl.nasa.gov/sbdb.cgi?sstr=3644045",
    "absolute_magnitude_h": 19.2,
    "estimated_diameter": {
        "kilometers": {
            "estimated_diameter_min": 0.3841978911,
            "estimated_diameter_max": 0.8590926012
        },
        "meters": {
            "estimated_diameter_min": 384.1978910643,
            "estimated_diameter_max": 859.0926012318
        },
        "miles": {
            "estimated_diameter_min": 0.2387294278,
            "estimated_diameter_max": 0.5338152287
        },
        "feet": {
            "estimated_diameter_min": 1260.4918089193,
            "estimated_diameter_max": 2818.5453698252
        }
    },
    "is_potentially_hazardous_asteroid": false,
    "close_approach_data": [
        {
            "close_approach_date": "2013-07-09",
            "close_approach_date_full": "2013-Jul-09 10:22",
            "epoch_date_close_approach": 1373365320000,
            "relative_velocity": {
                "kilometers_per_second": "20.9673730161",
                "kilometers_per_hour": "75482.5428579665",
                "miles_per_hour": "46901.9166997181"
            },
            "miss_distance": {
                "astronomical": "0.2832492782",
                "lunar": "110.1839692198",
                "kilometers": "42373488.697757434",
                "miles": "26329664.9539992292"
            },
            "orbiting_body": "Earth"
        },
        {
            "close_approach_date": "2017-01-04",
            "close_approach_date_full": "2017-Jan-04 08:20",
            "epoch_date_close_approach": 1483518000000,
            "relative_velocity": {
                "kilometers_per_second": "19.8400845783",
                "kilometers_per_hour": "71424.3044818976",
                "miles_per_hour": "44380.2851932102"
            },
            "miss_distance": {
                "astronomical": "0.3090996639",
                "lunar": "120.2397692571",
                "kilometers": "46240651.337155893",
                "miles": "28732608.3921536034"
            },
            "orbiting_body": "Earth"
        }
    ],
    "orbital_data": {
        "orbit_id": "22",
        "orbit_determination_date": "2017-04-06 08:45:35",
        "first_observation_date": "2013-06-14",
        "last_observation_date": "2013-07-14",
        "data_arc_in_days": 30,
        "observations_used": 135,
        "orbit_uncertainty": "7",
        "minimum_orbit_intersection": ".250065",
        "jupiter_tisserand_invariant": "3.150",
        "epoch_osculation": "2459000.5",
        "eccentricity": ".7798339736493592",
        "semi_major_axis": "2.201969780058705",
        "inclination": "14.91374616387052",
        "ascending_node_longitude": "207.9256874498601",
        "orbital_period": "1193.480859731578",
        "perihelion_distance": ".4847989366197194",
        "perihelion_argument": "172.8476639330943",
        "aphelion_distance": "3.91914062349769",
        "perihelion_time": "2458911.908986282957",
        "mean_anomaly": "26.72247709553422",
        "mean_motion": ".3016386874281054",
        "equinox": "J2000",
        "orbit_class": {
            "orbit_class_type": "APO",
            "orbit_class_description": "Near-Earth asteroid orbits which cross the Earth’s orbit similar to that of 1862 Apollo",
            "orbit_class_range": "a (semi-major axis) > 1.0 AU; q (perihelion) < 1.017 AU"
        }
    },
    "is_sentry_object": false
}